[
  {
    "OBJECT_NAME": "STARLINK-4385",
    "OBJECT_ID": "2022-084K",
    "EPOCH": "2025-09-19T17:48:12.574944",
    "MEAN_MOTION": 15.01260214,
    "ECCENTRICITY": 0.00027919,
    "INCLINATION": 97.6005,
    "RA_OF_ASC_NODE": 322.8484,
    "ARG_OF_PERICENTER": 178.8267,
    "MEAN_ANOMALY": 181.2964,
    "EPHEMERIS_TYPE": 0,
    "CLASSIFICATION_TYPE": "U",
    "NORAD_CAT_ID": 53198,
    "ELEMENT_SET_NO": 999,
    "REV_AT_EPOCH": 17432,
    "BSTAR": 1.9856431e-05,
    "MEAN_MOTION_DOT": 1.97e-06,
    "MEAN_MOTION_DDOT": 0,
    "TLE": {
      "line1": "1 53198U 22084K   25262.74181221  .00000197  00000+0  19856-4 0  9994",
      "line2": "2 53198  97.6005 322.8484 0002791 178.8267 181.2964 15.01260214174324"
    }
  },
  {
    "OBJECT_NAME": "STARLINK-33993",
    "OBJECT_ID": "2025-098Z",
    "EPOCH": "2025-09-20T00:00:02.000160",
    "MEAN_MOTION": 14.98315557,
    "ECCENTRICITY": 0.00037057,
    "INCLINATION": 70.0027,
    "RA_OF_ASC_NODE": 344.6586,
    "ARG_OF_PERICENTER": 269.205,
    "MEAN_ANOMALY": 269.4269,
    "EPHEMERIS_TYPE": 0,
    "CLASSIFICATION_TYPE": "U",
    "NORAD_CAT_ID": 63949,
    "ELEMENT_SET_NO": 999,
    "REV_AT_EPOCH": 578,
    "BSTAR": 0.0021379412,
    "MEAN_MOTION_DOT": 0.00025501,
    "MEAN_MOTION_DDOT": 0,
    "TLE": {
      "line1": "1 63949U 25098Z   25263.00002315  .00025501  00000+0  21379-2 0  9990",
      "line2": "2 63949  70.0027 344.6586 0003705 269.2050 269.4269 14.98315557  5780"
    }
  },
  {
    "OBJECT_NAME": "STARLINK-32281",
    "OBJECT_ID": "2024-138W",
    "EPOCH": "2025-09-20T01:02:30.220512",
    "MEAN_MOTION": 15.301997,
    "ECCENTRICITY": 0.00011669,
    "INCLINATION": 53.1623,
    "RA_OF_ASC_NODE": 22.0416,
    "ARG_OF_PERICENTER": 106.9862,
    "MEAN_ANOMALY": 253.1267,
    "EPHEMERIS_TYPE": 0,
    "CLASSIFICATION_TYPE": "U",
    "NORAD_CAT_ID": 60375,
    "ELEMENT_SET_NO": 999,
    "REV_AT_EPOCH": 6440,
    "BSTAR": 1.4070606e-05,
    "MEAN_MOTION_DOT": 5.8e-07,
    "MEAN_MOTION_DDOT": 0,
    "TLE": {
      "line1": "1 60375U 24138W   25263.04340533  .00000058  00000+0  14071-4 0  9998",
      "line2": "2 60375  53.1623  22.0416 0001166 106.9862 253.1267 15.30199700 64409"
    }
  },
  {
    "OBJECT_NAME": "STARLINK-1677",
    "OBJECT_ID": "2020-070AW",
    "EPOCH": "2025-09-20T03:35:27.045312",
    "MEAN_MOTION": 15.06408834,
    "ECCENTRICITY": 0.00015772,
    "INCLINATION": 53.0515,
    "RA_OF_ASC_NODE": 207.2049,
    "ARG_OF_PERICENTER": 94.3767,
    "MEAN_ANOMALY": 265.7402,
    "EPHEMERIS_TYPE": 0,
    "CLASSIFICATION_TYPE": "U",
    "NORAD_CAT_ID": 46576,
    "ELEMENT_SET_NO": 999,
    "REV_AT_EPOCH": 27401,
    "BSTAR": 0.0001985805,
    "MEAN_MOTION_DOT": 2.678e-05,
    "MEAN_MOTION_DDOT": 0,
    "TLE": {
      "line1": "1 46576U 20070AW  25263.14961858  .00002678  00000+0  19858-3 0  9993",
      "line2": "2 46576  53.0515 207.2049 0001577  94.3767 265.7402 15.06408834274018"
    }
  },
  {
    "OBJECT_NAME": "NPSAT1",
    "OBJECT_ID": "2019-036B",
    "EPOCH": "2025-09-20T01:25:31.639872",
    "MEAN_MOTION": 14.7054819,
    "ECCENTRICITY": 0.000832,
    "INCLINATION": 23.9983,
    "RA_OF_ASC_NODE": 172.26,
    "ARG_OF_PERICENTER": 46.2539,
    "MEAN_ANOMALY": 313.8644,
    "EPHEMERIS_TYPE": 0,
    "CLASSIFICATION_TYPE": "U",
    "NORAD_CAT_ID": 44340,
    "ELEMENT_SET_NO": 999,
    "REV_AT_EPOCH": 33262,
    "BSTAR": 0.0010661119,
    "MEAN_MOTION_DOT": 6.855e-05,
    "MEAN_MOTION_DDOT": 0,
    "TLE": {
      "line1": "1 44340U 19036B   25263.05939398  .00006855  00000+0  10661-2 0  9997",
      "line2": "2 44340  23.9983 172.2600 0008320  46.2539 313.8644 14.70548190332625"
    }
  },
  {
    "OBJECT_NAME": "STARLINK-3996",
    "OBJECT_ID": "2022-052V",
    "EPOCH": "2025-09-19T13:56:12.483456",
    "MEAN_MOTION": 15.08837251,
    "ECCENTRICITY": 0.00012168,
    "INCLINATION": 53.2178,
    "RA_OF_ASC_NODE": 317.2618,
    "ARG_OF_PERICENTER": 86.8036,
    "MEAN_ANOMALY": 273.3095,
    "EPHEMERIS_TYPE": 0,
    "CLASSIFICATION_TYPE": "U",
    "NORAD_CAT_ID": 52617,
    "ELEMENT_SET_NO": 999,
    "REV_AT_EPOCH": 18515,
    "BSTAR": 3.8030704e-05,
    "MEAN_MOTION_DOT": 3.17e-06,
    "MEAN_MOTION_DDOT": 0,
    "TLE": {
      "line1": "1 52617U 22052V   25262.58070004  .00000317  00000+0  38031-4 0  9992",
      "line2": "2 52617  53.2178 317.2618 0001216  86.8036 273.3095 15.08837251185157"
    }
  },
  {
    "OBJECT_NAME": "HULIANWANG DIGUI-23",
    "OBJECT_ID": "2025-086D",
    "EPOCH": "2025-09-20T06:33:03.970368",
    "MEAN_MOTION": 13.24414343,
    "ECCENTRICITY": 0.00013059,
    "INCLINATION": 86.5085,
    "RA_OF_ASC_NODE": 44.0119,
    "ARG_OF_PERICENTER": 99.8751,
    "MEAN_ANOMALY": 260.253,
    "EPHEMERIS_TYPE": 0,
    "CLASSIFICATION_TYPE": "U",
    "NORAD_CAT_ID": 63690,
    "ELEMENT_SET_NO": 999,
    "REV_AT_EPOCH": 1913,
    "BSTAR": 0.00011852721,
    "MEAN_MOTION_DOT": 6.6e-07,
    "MEAN_MOTION_DDOT": 0,
    "TLE": {
      "line1": "1 63690U 25086D   25263.27296262  .00000066  00000+0  11853-3 0  9991",
      "line2": "2 63690  86.5085  44.0119 0001305  99.8751 260.2530 13.24414343 19136"
    }
  },
  {
    "OBJECT_NAME": "KUIPER-00115",
    "OBJECT_ID": "2025-171W",
    "EPOCH": "2025-09-20T03:32:25.215648",
    "MEAN_MOTION": 15.36482575,
    "ECCENTRICITY": 0.00051137,
    "INCLINATION": 51.8774,
    "RA_OF_ASC_NODE": 213.5194,
    "ARG_OF_PERICENTER": 270.0608,
    "MEAN_ANOMALY": 89.9793,
    "EPHEMERIS_TYPE": 0,
    "CLASSIFICATION_TYPE": "U",
    "NORAD_CAT_ID": 65152,
    "ELEMENT_SET_NO": 999,
    "REV_AT_EPOCH": 733,
    "BSTAR": 0.00091346421,
    "MEAN_MOTION_DOT": 0.00032788,
    "MEAN_MOTION_DDOT": 0,
    "TLE": {
      "line1": "1 65152U 25171W   25263.14751407  .00032788  00000+0  91346-3 0  9995",
      "line2": "2 65152  51.8774 213.5194 0005113 270.0608  89.9793 15.36482575  7335"
    }
  },
  {
    "OBJECT_NAME": "STARLINK-11551 [DTC]",
    "OBJECT_ID": "2025-019M",
    "EPOCH": "2025-09-19T23:34:52.753728",
    "MEAN_MOTION": 15.70845439,
    "ECCENTRICITY": 9.627e-05,
    "INCLINATION": 42.9986,
    "RA_OF_ASC_NODE": 254.8819,
    "ARG_OF_PERICENTER": 228.0266,
    "MEAN_ANOMALY": 132.0519,
    "EPHEMERIS_TYPE": 0,
    "CLASSIFICATION_TYPE": "U",
    "NORAD_CAT_ID": 62840,
    "ELEMENT_SET_NO": 999,
    "REV_AT_EPOCH": 3703,
    "BSTAR": 0.00025095705,
    "MEAN_MOTION_DOT": 0.00031883,
    "MEAN_MOTION_DDOT": 0,
    "TLE": {
      "line1": "1 62840U 25019M   25262.98255502  .00031883  00000+0  25096-3 0  9997",
      "line2": "2 62840  42.9986 254.8819 0000962 228.0266 132.0519 15.70845439 37030"
    }
  },
  {
    "OBJECT_NAME": "STARLINK-32868",
    "OBJECT_ID": "2025-022A",
    "EPOCH": "2025-09-19T13:20:52.358784",
    "MEAN_MOTION": 15.30189173,
    "ECCENTRICITY": 0.00018805,
    "INCLINATION": 53.1579,
    "RA_OF_ASC_NODE": 204.1689,
    "ARG_OF_PERICENTER": 85.5625,
    "MEAN_ANOMALY": 274.5591,
    "EPHEMERIS_TYPE": 0,
    "CLASSIFICATION_TYPE": "U",
    "NORAD_CAT_ID": 62854,
    "ELEMENT_SET_NO": 999,
    "REV_AT_EPOCH": 3651,
    "BSTAR": 0.0017140815,
    "MEAN_MOTION_DOT": 0.00050738,
    "MEAN_MOTION_DDOT": 0,
    "TLE": {
      "line1": "1 62854U 25022A   25262.55616156  .00050738  00000+0  17141-2 0  9996",
      "line2": "2 62854  53.1579 204.1689 0001880  85.5625 274.5591 15.30189173 36511"
    }
  },
  {
    "OBJECT_NAME": "STARLINK-31243",
    "OBJECT_ID": "2024-020U",
    "EPOCH": "2025-09-19T18:54:45.316800",
    "MEAN_MOTION": 15.30192899,
    "ECCENTRICITY": 0.00011516,
    "INCLINATION": 53.1625,
    "RA_OF_ASC_NODE": 36.3589,
    "ARG_OF_PERICENTER": 75.9915,
    "MEAN_ANOMALY": 284.1214,
    "EPHEMERIS_TYPE": 0,
    "CLASSIFICATION_TYPE": "U",
    "NORAD_CAT_ID": 58894,
    "ELEMENT_SET_NO": 999,
    "REV_AT_EPOCH": 9190,
    "BSTAR": 2.6065168e-05,
    "MEAN_MOTION_DOT": 4.13e-06,
    "MEAN_MOTION_DDOT": 0,
    "TLE": {
      "line1": "1 58894U 24020U   25262.78802450  .00000413  00000+0  26065-4 0  9993",
      "line2": "2 58894  53.1625  36.3589 0001151  75.9915 284.1214 15.30192899 91904"
    }
  },
  {
    "OBJECT_NAME": "STARLINK-32571",
    "OBJECT_ID": "2024-216Z",
    "EPOCH": "2025-09-19T23:28:15.855456",
    "MEAN_MOTION": 15.27597163,
    "ECCENTRICITY": 0.00014033,
    "INCLINATION": 43.0026,
    "RA_OF_ASC_NODE": 139.8775,
    "ARG_OF_PERICENTER": 272.4788,
    "MEAN_ANOMALY": 87.5903,
    "EPHEMERIS_TYPE": 0,
    "CLASSIFICATION_TYPE": "U",
    "NORAD_CAT_ID": 62055,
    "ELEMENT_SET_NO": 999,
    "REV_AT_EPOCH": 4787,
    "BSTAR": 0.0011599253,
    "MEAN_MOTION_DOT": 0.00031811,
    "MEAN_MOTION_DDOT": 0,
    "TLE": {
      "line1": "1 62055U 24216Z   25262.97796129  .00031811  00000+0  11599-2 0  9990",
      "line2": "2 62055  43.0026 139.8775 0001403 272.4788  87.5903 15.27597163 47875"
    }
  },
  {
    "OBJECT_NAME": "STARLINK-34730",
    "OBJECT_ID": "2025-158G",
    "EPOCH": "2025-09-20T02:16:19.761888",
    "MEAN_MOTION": 15.04841609,
    "ECCENTRICITY": 0.00021559,
    "INCLINATION": 97.6044,
    "RA_OF_ASC_NODE": 126.0418,
    "ARG_OF_PERICENTER": 76.7429,
    "MEAN_ANOMALY": 283.4038,
    "EPHEMERIS_TYPE": 0,
    "CLASSIFICATION_TYPE": "U",
    "NORAD_CAT_ID": 64938,
    "ELEMENT_SET_NO": 999,
    "REV_AT_EPOCH": 969,
    "BSTAR": 0.00030093835,
    "MEAN_MOTION_DOT": 4.192e-05,
    "MEAN_MOTION_DDOT": 0,
    "TLE": {
      "line1": "1 64938U 25158G   25263.09467317  .00004192  00000+0  30094-3 0  9990",
      "line2": "2 64938  97.6044 126.0418 0002155  76.7429 283.4038 15.04841609  9692"
    }
  }
]